STARLINK-36217          
1 67120U 25299U   26005.58336806 -.00113456  00000+0 -19542-2 0  9999
2 67120  42.9999 172.4391 0001488 258.7554  95.0865 15.50608142  4643
STARLINK-36124          
1 67121U 25299V   26005.58336806 -.00147022  00000+0 -25421-2 0  9999
2 67121  43.0000 172.4241 0001502 266.1513  93.4287 15.50639086  4649
STARLINK-36188          
1 67122U 25299W   26005.58336806 -.00088429  00000+0 -15164-2 0  9998
2 67122  42.9998 172.4203 0001564 264.0399  97.4572 15.50618725  4647
STARLINK-36151          
1 67123U 25299X   26005.58336806 -.01934596  00000+0 -47602-1 0  9996
2 67123  43.0006 172.4844 0001321 256.6629  79.4444 15.43200938  4648
STARLINK-36195          
1 67124U 25299Y   26005.58336806 -.02133125  00000+0 -41255-1 0  9995
2 67124  42.9994 172.4152 0001558 275.9728  87.4208 15.50424553  4647
STARLINK-36219          
1 67125U 25299Z   26005.58336806 -.00134764  00000+0 -23267-2 0  9998
2 67125  42.9999 172.4100 0001493 266.8733  98.4597 15.50630860  4642
STARLINK-36223          
1 67126U 25299AA  26005.58336806 -.00025155  00000+0 -42446-3 0  9993
2 67126  43.0000 172.4063 0001548 264.9156 102.3531 15.50570417  4649
STARLINK-36164          
1 67127U 25299AB  26005.58336806 -.00088161  00000+0 -15129-2 0  9997
2 67127  42.9998 172.4010 0001831 261.1969 107.9774 15.50595774  4645
STARLINK-35685          
1 67128U 25299AC  26005.58336806 -.02063249  00000+0 -49027-1 0  9993
2 67128  42.9996 172.4284 0001510 267.2223  90.7307 15.44446208  4642
STARLINK-36214          
1 67129U 25299AD  26005.58336806 -.00110176  00000+0 -18959-2 0  9995
2 67129  43.0000 172.3956 0001471 272.0763  99.0006 15.50620765  4642
STARLINK-36194          
1 67130U 25299AE  26005.58336806 -.00154142  00000+0 -26676-2 0  9993
2 67130  42.9999 172.3876 0001584 266.8948 108.0219 15.50641953  4640
ZIYUAN 3-04 (ZY 3-04)   
1 67131U 25300A   25361.09375736  .00002035  00000+0  94249-4 0  9996
2 67131  97.4921  75.1314 0003125 152.4137 207.7265 15.21251311  1672
